[
    {
        "Altitude(m)": 704883.4323144718,
        "Argument of Periapsis(deg)": 0.011390121186627068,
        "Eccentricity": 0.0,
        "Inclination(deg)": 45.0,
        "Latitude(deg)": -8.24120453958261,
        "Longitude(deg)": 167.5088979902627,
        "Mean Anomaly(deg)": 191.5332166474808,
        "RAAN(deg)": 79.98924805854179,
        "Satellite Name": "Constellation 1 363",
        "Satellite Number": 363,
        "Semi-Major Axis(m)": 7083131.272910544,
        "Time(s)": 190
    },
    {
        "Altitude(m)": 704892.7726227918,
        "Argument of Periapsis(deg)": 0.011450069192872472,
        "Eccentricity": 0.0,
        "Inclination(deg)": 45.0,
        "Latitude(deg)": -8.283943090253661,
        "Longitude(deg)": 167.5485285792351,
        "Mean Anomaly(deg)": 191.5939177877307,
        "RAAN(deg)": 79.98919146937622,
        "Satellite Name": "Constellation 1 363",
        "Satellite Number": 363,
        "Semi-Major Axis(m)": 7083131.272910544,
        "Time(s)": 191
    },
    {
        "Altitude(m)": 704902.1306408726,
        "Argument of Periapsis(deg)": 0.01151001719911788,
        "Eccentricity": 0.0,
        "Inclination(deg)": 45.0,
        "Latitude(deg)": -8.326676671632107,
        "Longitude(deg)": 167.588168512479,
        "Mean Anomaly(deg)": 191.6546189279806,
        "RAAN(deg)": 79.98913488021066,
        "Satellite Name": "Constellation 1 363",
        "Satellite Number": 363,
        "Semi-Major Axis(m)": 7083131.272910544,
        "Time(s)": 192
    },
    {
        "Altitude(m)": 704911.5063449248,
        "Argument of Periapsis(deg)": 0.011569965205363285,
        "Eccentricity": 0.0,
        "Inclination(deg)": 45.0,
        "Latitude(deg)": -8.369405257134488,
        "Longitude(deg)": 167.62781767208364,
        "Mean Anomaly(deg)": 191.71532006823057,
        "RAAN(deg)": 79.98907829104508,
        "Satellite Name": "Constellation 1 363",
        "Satellite Number": 363,
        "Semi-Major Axis(m)": 7083131.272910544,
        "Time(s)": 193
    },
    {
        "Altitude(m)": 704920.8997110801,
        "Argument of Periapsis(deg)": 0.01162991321160869,
        "Eccentricity": 0.0,
        "Inclination(deg)": 45.0,
        "Latitude(deg)": -8.412128820160241,
        "Longitude(deg)": 167.6674764444485,
        "Mean Anomaly(deg)": 191.77602120848042,
        "RAAN(deg)": 79.98902170187951,
        "Satellite Name": "Constellation 1 363",
        "Satellite Number": 363,
        "Semi-Major Axis(m)": 7083131.272910544,
        "Time(s)": 194
    },
    {
        "Altitude(m)": 704930.3107153827,
        "Argument of Periapsis(deg)": 0.011689861217854095,
        "Eccentricity": 0.0,
        "Inclination(deg)": 45.0,
        "Latitude(deg)": -8.454847334090479,
        "Longitude(deg)": 167.70714471170163,
        "Mean Anomaly(deg)": 191.83672234873032,
        "RAAN(deg)": 79.98896511271396,
        "Satellite Name": "Constellation 1 363",
        "Satellite Number": 363,
        "Semi-Major Axis(m)": 7083131.272910544,
        "Time(s)": 195
    },
    {
        "Altitude(m)": 704939.7393337908,
        "Argument of Periapsis(deg)": 0.0117498092240995,
        "Eccentricity": 0.0,
        "Inclination(deg)": 45.0,
        "Latitude(deg)": -8.497560772288553,
        "Longitude(deg)": 167.74682252408775,
        "Mean Anomaly(deg)": 191.8974234889802,
        "RAAN(deg)": 79.98890852354837,
        "Satellite Name": "Constellation 1 363",
        "Satellite Number": 363,
        "Semi-Major Axis(m)": 7083131.272910544,
        "Time(s)": 196
    },
    {
        "Altitude(m)": 704949.185542181,
        "Argument of Periapsis(deg)": 0.011809757230344905,
        "Eccentricity": 0.0,
        "Inclination(deg)": 45.0,
        "Latitude(deg)": -8.540269108100025,
        "Longitude(deg)": 167.78650993187122,
        "Mean Anomaly(deg)": 191.95812462923013,
        "RAAN(deg)": 79.98885193438281,
        "Satellite Name": "Constellation 1 363",
        "Satellite Number": 363,
        "Semi-Major Axis(m)": 7083131.272910544,
        "Time(s)": 197
    },
    {
        "Altitude(m)": 704958.6493163478,
        "Argument of Periapsis(deg)": 0.011869705236590313,
        "Eccentricity": 0.0,
        "Inclination(deg)": 45.0,
        "Latitude(deg)": -8.58297231485226,
        "Longitude(deg)": 167.82620698533626,
        "Mean Anomaly(deg)": 192.01882576948,
        "RAAN(deg)": 79.98879534521723,
        "Satellite Name": "Constellation 1 363",
        "Satellite Number": 363,
        "Semi-Major Axis(m)": 7083131.272910544,
        "Time(s)": 198
    },
    {
        "Altitude(m)": 704968.1306319993,
        "Argument of Periapsis(deg)": 0.011929653242835719,
        "Eccentricity": 0.0,
        "Inclination(deg)": 45.0,
        "Latitude(deg)": -8.625670365854528,
        "Longitude(deg)": 167.8659137347869,
        "Mean Anomaly(deg)": 192.07952690972994,
        "RAAN(deg)": 79.98873875605167,
        "Satellite Name": "Constellation 1 363",
        "Satellite Number": 363,
        "Semi-Major Axis(m)": 7083131.272910544,
        "Time(s)": 199
    }
]